{
  "type": "FeatureCollection",
  "features": [
    {
      "type": "Feature",
      "properties": {
        "norad_id": 34389,
        "name": "COSMOS 2251 DEB",
        "group": "cosmos-2251-debris",
        "lat": 17.345849538326675,
        "lon": 82.04394373846426,
        "alt_km": 769.3258342888948,
        "timestamp": "2025-12-03T08:58:46.397104+00:00",
        "meta_object_name": "COSMOS 2251 DEB",
        "meta_object_id": "1993-036QE",
        "meta_epoch": "2025-12-03T03:46:03.740736",
        "meta_mean_motion": 14.41488846,
        "meta_eccentricity": 0.0028405,
        "meta_inclination": 74.0187,
        "meta_ra_of_asc_node": 267.5819,
        "meta_arg_of_pericenter": 21.6842,
        "meta_mean_anomaly": 93.4661,
        "meta_ephemeris_type": 0,
        "meta_classification_type": "U",
        "meta_norad_cat_id": 34389,
        "meta_element_set_no": 999,
        "meta_rev_at_epoch": 87874,
        "meta_bstar": 0.00057383,
        "meta_mean_motion_dot": 1.846e-05,
        "meta_mean_motion_ddot": 0,
        "tle_line1": "1 34389U 93036QE  25337.15698774  .00001846  00000+0  57383-3 0  9992",
        "tle_line2": "2 34389  74.0187 267.5819 0028405  21.6842  93.4661 14.41488846878747"
      },
      "geometry": {
        "type": "Point",
        "coordinates": [
          82.04394373846426,
          17.345849538326675
        ]
      }
    },
    {
      "type": "Feature",
      "properties": {
        "norad_id": 34396,
        "name": "COSMOS 2251 DEB",
        "group": "cosmos-2251-debris",
        "lat": 60.142523657153475,
        "lon": 172.25055205255902,
        "alt_km": 644.8458143907174,
        "timestamp": "2025-12-03T08:58:46.397114+00:00",
        "meta_object_name": "COSMOS 2251 DEB",
        "meta_object_id": "1993-036QM",
        "meta_epoch": "2025-12-02T21:50:13.815168",
        "meta_mean_motion": 14.73961737,
        "meta_eccentricity": 0.0007569,
        "meta_inclination": 74.0273,
        "meta_ra_of_asc_node": 143.2253,
        "meta_arg_of_pericenter": 185.2652,
        "meta_mean_anomaly": 296.7903,
        "meta_ephemeris_type": 0,
        "meta_classification_type": "U",
        "meta_norad_cat_id": 34396,
        "meta_element_set_no": 999,
        "meta_rev_at_epoch": 88201,
        "meta_bstar": 0.0028541,
        "meta_mean_motion_dot": 0.00018775,
        "meta_mean_motion_ddot": 0,
        "tle_line1": "1 34396U 93036QM  25336.90988212  .00018775  00000+0  28541-2 0  9993",
        "tle_line2": "2 34396  74.0273 143.2253 0007569 185.2652 296.7903 14.73961737882019"
      },
      "geometry": {
        "type": "Point",
        "coordinates": [
          172.25055205255902,
          60.142523657153475
        ]
      }
    },
    {
      "type": "Feature",
      "properties": {
        "norad_id": 34400,
        "name": "COSMOS 2251 DEB",
        "group": "cosmos-2251-debris",
        "lat": -13.522621772045797,
        "lon": 40.0595474067535,
        "alt_km": 424.8348394376353,
        "timestamp": "2025-12-03T08:58:46.397124+00:00",
        "meta_object_name": "COSMOS 2251 DEB",
        "meta_object_id": "1993-036QR",
        "meta_epoch": "2025-12-03T04:23:16.196640",
        "meta_mean_motion": 15.48240902,
        "meta_eccentricity": 0.0007622,
        "meta_inclination": 73.9699,
        "meta_ra_of_asc_node": 44.4447,
        "meta_arg_of_pericenter": 268.8557,
        "meta_mean_anomaly": 91.1782,
        "meta_ephemeris_type": 0,
        "meta_classification_type": "U",
        "meta_norad_cat_id": 34400,
        "meta_element_set_no": 999,
        "meta_rev_at_epoch": 89826,
        "meta_bstar": 0.0039776,
        "meta_mean_motion_dot": 0.0021581,
        "meta_mean_motion_ddot": 0,
        "tle_line1": "1 34400U 93036QR  25337.18282635  .00215810  00000+0  39776-2 0  9997",
        "tle_line2": "2 34400  73.9699  44.4447 0007622 268.8557  91.1782 15.48240902898267"
      },
      "geometry": {
        "type": "Point",
        "coordinates": [
          40.0595474067535,
          -13.522621772045797
        ]
      }
    },
    {
      "type": "Feature",
      "properties": {
        "norad_id": 34409,
        "name": "COSMOS 2251 DEB",
        "group": "cosmos-2251-debris",
        "lat": 36.278801257496546,
        "lon": 132.51846586151427,
        "alt_km": 706.5269701986581,
        "timestamp": "2025-12-03T08:58:46.397135+00:00",
        "meta_object_name": "COSMOS 2251 DEB",
        "meta_object_id": "1993-036RA",
        "meta_epoch": "2025-12-02T18:19:26.272128",
        "meta_mean_motion": 14.57987413,
        "meta_eccentricity": 0.0079445,
        "meta_inclination": 74.0627,
        "meta_ra_of_asc_node": 325.7849,
        "meta_arg_of_pericenter": 42.8423,
        "meta_mean_anomaly": 134.3606,
        "meta_ephemeris_type": 0,
        "meta_classification_type": "U",
        "meta_norad_cat_id": 34409,
        "meta_element_set_no": 999,
        "meta_rev_at_epoch": 89047,
        "meta_bstar": 0.00030312,
        "meta_mean_motion_dot": 1.423e-05,
        "meta_mean_motion_ddot": 0,
        "tle_line1": "1 34409U 93036RA  25336.76349852  .00001423  00000+0  30312-3 0  9995",
        "tle_line2": "2 34409  74.0627 325.7849 0079445  42.8423 134.3606 14.57987413890478"
      },
      "geometry": {
        "type": "Point",
        "coordinates": [
          132.51846586151427,
          36.278801257496546
        ]
      }
    },
    {
      "type": "Feature",
      "properties": {
        "norad_id": 34410,
        "name": "COSMOS 2251 DEB",
        "group": "cosmos-2251-debris",
        "lat": -46.91839975501439,
        "lon": -96.51167348321445,
        "alt_km": 534.0949162066117,
        "timestamp": "2025-12-03T08:58:46.397145+00:00",
        "meta_object_name": "COSMOS 2251 DEB",
        "meta_object_id": "1993-036RB",
        "meta_epoch": "2025-12-02T22:23:40.864704",
        "meta_mean_motion": 15.1740913,
        "meta_eccentricity": 0.0020718,
        "meta_inclination": 73.7386,
        "meta_ra_of_asc_node": 282.6127,
        "meta_arg_of_pericenter": 123.8313,
        "meta_mean_anomaly": 298.481,
        "meta_ephemeris_type": 0,
        "meta_classification_type": "U",
        "meta_norad_cat_id": 34410,
        "meta_element_set_no": 999,
        "meta_rev_at_epoch": 89625,
        "meta_bstar": 0.0032689,
        "meta_mean_motion_dot": 0.00066295,
        "meta_mean_motion_ddot": 0,
        "tle_line1": "1 34410U 93036RB  25336.93311186  .00066295  00000+0  32689-2 0  9991",
        "tle_line2": "2 34410  73.7386 282.6127 0020718 123.8313 298.4810 15.17409130896258"
      },
      "geometry": {
        "type": "Point",
        "coordinates": [
          -96.51167348321445,
          -46.91839975501439
        ]
      }
    },
    {
      "type": "Feature",
      "properties": {
        "norad_id": 34412,
        "name": "COSMOS 2251 DEB",
        "group": "cosmos-2251-debris",
        "lat": -2.695324635957143,
        "lon": -18.554989908847684,
        "alt_km": 718.1258358421919,
        "timestamp": "2025-12-03T08:58:46.397156+00:00",
        "meta_object_name": "COSMOS 2251 DEB",
        "meta_object_id": "1993-036RD",
        "meta_epoch": "2025-12-02T09:45:44.412192",
        "meta_mean_motion": 14.46977989,
        "meta_eccentricity": 0.01871343,
        "meta_inclination": 73.9481,
        "meta_ra_of_asc_node": 344.0396,
        "meta_arg_of_pericenter": 81.6153,
        "meta_mean_anomaly": 280.6171,
        "meta_ephemeris_type": 0,
        "meta_classification_type": "U",
        "meta_norad_cat_id": 34412,
        "meta_element_set_no": 999,
        "meta_rev_at_epoch": 87501,
        "meta_bstar": 0.00095274861,
        "meta_mean_motion_dot": 4.286e-05,
        "meta_mean_motion_ddot": 0,
        "tle_line1": "1 34412U 93036RD  25336.40676403  .00004286  00000+0  95275-3 0  9994",
        "tle_line2": "2 34412  73.9481 344.0396 0187134  81.6153 280.6171 14.46977989875015"
      },
      "geometry": {
        "type": "Point",
        "coordinates": [
          -18.554989908847684,
          -2.695324635957143
        ]
      }
    },
    {
      "type": "Feature",
      "properties": {
        "norad_id": 34413,
        "name": "COSMOS 2251 DEB",
        "group": "cosmos-2251-debris",
        "lat": 17.915390432900093,
        "lon": -72.80288541282422,
        "alt_km": 733.5341379648944,
        "timestamp": "2025-12-03T08:58:46.397166+00:00",
        "meta_object_name": "COSMOS 2251 DEB",
        "meta_object_id": "1993-036RE",
        "meta_epoch": "2025-12-02T21:26:09.030912",
        "meta_mean_motion": 14.28955799,
        "meta_eccentricity": 0.0090654,
        "meta_inclination": 74.0312,
        "meta_ra_of_asc_node": 282.7586,
        "meta_arg_of_pericenter": 1.099,
        "meta_mean_anomaly": 64.0025,
        "meta_ephemeris_type": 0,
        "meta_classification_type": "U",
        "meta_norad_cat_id": 34413,
        "meta_element_set_no": 999,
        "meta_rev_at_epoch": 86990,
        "meta_bstar": 0.0025084,
        "meta_mean_motion_dot": 6.607e-05,
        "meta_mean_motion_ddot": 0,
        "tle_line1": "1 34413U 93036RE  25336.89316008  .00006607  00000+0  25084-2 0  9999",
        "tle_line2": "2 34413  74.0312 282.7586 0090654   1.0990  64.0025 14.28955799869903"
      },
      "geometry": {
        "type": "Point",
        "coordinates": [
          -72.80288541282422,
          17.915390432900093
        ]
      }
    }
  ]
}